     2.10           NAVIGATION DATA                         RINEX VERSION / TYPE
SPIDER V4,0,0,3554                      2015 04 16 01:33    PGM / RUN BY / DATE 
   1.9558D-08  0.0000D+00 -5.9605D-08  1.1921D-07           ION ALPHA           
   1.3517D+05 -1.1469D+05  6.5536D+04 -2.6214D+05           ION BETA            
    2.793967723846D-09 4.440892098501D-15   589824     1830 DELTA-UTC: A0,A1,T,W
    16                                                      LEAP SECONDS        
                                                            END OF HEADER       
 1 15 02 04 12 00  0.0-9.400304406881D-06 4.547473508865D-13 0.000000000000D+00
    2.700000000000D+01-6.553125000000D+01 4.265177544482D-09-2.521954612961D+00
   -3.473833203316D-06 3.850719192997D-03 1.160427927971D-05 5.153676546097D+03
    3.024000000000D+05-5.029141902924D-08 7.728045424112D-02-1.080334186554D-07
    9.623021421697D-01 1.566875000000D+02 4.137369949951D-01-7.765323495335D-09
    7.143154817646D-11 1.000000000000D+00 1.830000000000D+03 0.000000000000D+00
    2.000000000000D+00 0.000000000000D+00 5.587935447693D-09 2.700000000000D+01
    3.024000000000D+05 0.000000000000D+00
 2 15 02 05 00 00  0.0 5.460265092552D-04 2.273736754432D-12 0.000000000000D+00
    5.500000000000D+01-7.181250000000D+01 4.537331843579D-09-1.894196380745D+00
   -3.805384039879D-06 1.431193272583D-02 1.090578734875D-05 5.153767692566D+03
    3.456000000000D+05 1.527369022369D-07 4.182715538891D-02-2.030283212662D-07
    9.409017397170D-01 1.570000000000D+02-2.327065466657D+00-7.788895750593D-09
    8.643217391802D-11 1.000000000000D+00 1.830000000000D+03 0.000000000000D+00
    2.000000000000D+00 0.000000000000D+00-2.048909664154D-08 5.500000000000D+01
    3.456000000000D+05 0.000000000000D+00
 3 15 02 04 14 00  0.0 1.902519725263D-04 2.205524651799D-11 0.000000000000D+00
    5.300000000000D+01 4.403125000000D+01 4.830915667497D-09 8.845092672242D-01
    2.332031726837D-06 9.392584906891D-04 7.200986146927D-06 5.153750547409D+03
    3.096000000000D+05 7.450580596924D-09 1.117391553215D+00-7.636845111847D-08
    9.591827195246D-01 2.370937500000D+02-2.993961902576D+00-8.179983801426D-09
    4.760912775126D-10 1.000000000000D+00 1.830000000000D+03 0.000000000000D+00
    2.800000000000D+00 0.000000000000D+00 1.396983861923D-09 5.300000000000D+01
    3.096000000000D+05 0.000000000000D+00
 4 15 02 04 10 00  0.0-6.669666618109D-06-5.684341886081D-13 0.000000000000D+00
    6.900000000000D+01-6.571875000000D+01 4.666265596143D-09 2.529737503915D+00
   -3.503635525703D-06 1.102380745579D-02 1.129321753979D-05 5.153740945816D+03
    2.952000000000D+05 2.235174179077D-08 5.763728996733D-02-2.011656761169D-07
    9.399326047658D-01 1.475625000000D+02 1.050475064572D+00-7.862113626800D-09
    3.000124801367D-11 1.000000000000D+00 1.830000000000D+03 0.000000000000D+00
    2.000000000000D+00 0.000000000000D+00-6.519258022308D-09 6.900000000000D+01
    2.952000000000D+05 0.000000000000D+00
 5 15 02 04 18 00  0.0-2.835351042449D-04 5.115907697473D-12 0.000000000000D+00
    9.000000000000D+00 4.450000000000D+01 5.147714254861D-09-2.704334332140D+00
    2.214685082436D-06 4.050862742588D-03 7.519498467445D-06 5.153762516022D+03
    3.240000000000D+05-5.029141902924D-08 1.111704195856D+00-1.378357410431D-07
    9.464730233033D-01 2.288750000000D+02 4.206532576681D-01-8.244628979526D-09
    5.471656461253D-10 1.000000000000D+00 1.830000000000D+03 0.000000000000D+00
    2.000000000000D+00 0.000000000000D+00-1.071020960808D-08 9.000000000000D+00
    3.240000000000D+05 0.000000000000D+00
 6 15 02 04 22 00  0.0 7.217796519399D-05 1.159605744760D-11 0.000000000000D+00
    3.000000000000D+01-7.212500000000D+01 4.066240677503D-09-8.983198458731D-01
   -3.689900040627D-06 3.855089889839D-04 1.184456050396D-05 5.153699705124D+03
    3.384000000000D+05-4.284083843231D-08 6.847239857310D-02-3.166496753693D-08
    9.622062230200D-01 1.517187500000D+02 2.536469354061D+00-7.760680098556D-09
    3.821587837849D-11 1.000000000000D+00 1.830000000000D+03 0.000000000000D+00
    2.000000000000D+00 0.000000000000D+00 4.656612873077D-09 3.000000000000D+01
    3.384000000000D+05 0.000000000000D+00
 7 15 02 04 16 00  0.0 4.374701529741D-04 3.296918293927D-12 0.000000000000D+00
    4.000000000000D+01 3.221875000000D+01 3.894804923021D-09-9.797294390580D-01
    1.538544893265D-06 7.998166140169D-03 1.249089837074D-05 5.153742820740D+03
    3.168000000000D+05 2.160668373108D-07-3.046002015307D+00-8.568167686462D-08
    9.717245766176D-01 1.451250000000D+02-2.753817138257D+00-7.644961108610D-09
   -3.518003666159D-10 1.000000000000D+00 1.830000000000D+03 0.000000000000D+00
    2.000000000000D+00 0.000000000000D+00-1.117587089539D-08 4.000000000000D+01
    3.168000000000D+05 0.000000000000D+00
 9 15 02 04 16 00  0.0-7.667159661651D-05-1.193711796077D-11 0.000000000000D+00
    9.000000000000D+01-3.437500000000D+01 4.966992595001D-09 1.391156467388D+00
   -1.898035407066D-06 3.383089788258D-04 5.276873707771D-06 5.153652206421D+03
    3.168000000000D+05-3.539025783539D-08 2.161986171333D+00-7.450580596924D-09
    9.580013634364D-01 2.730000000000D+02 2.228596420021D+00-8.300345299972D-09
   -4.728768487894D-10 1.000000000000D+00 1.830000000000D+03 0.000000000000D+00
    2.000000000000D+00 0.000000000000D+00 4.656612873077D-10 9.000000000000D+01
    3.168000000000D+05 0.000000000000D+00
10 15 02 04 16 00  0.0-1.618461683393D-04-1.705302565824D-12 0.000000000000D+00
    2.200000000000D+01 4.550000000000D+01 5.172001049658D-09 2.879938815411D+00
    2.179294824600D-06 1.454580633435D-02 7.208436727524D-06 5.153656152725D+03
    3.168000000000D+05-2.980232238770D-08 1.127518369552D+00-2.458691596985D-07
    9.412480343701D-01 2.283750000000D+02 9.196925011585D-01-8.080336399985D-09
    4.943063180995D-10 1.000000000000D+00 1.830000000000D+03 0.000000000000D+00
    2.000000000000D+00 0.000000000000D+00-3.259629011154D-09 2.200000000000D+01
    3.168000000000D+05 0.000000000000D+00
11 15 02 04 12 00  0.0-5.555693060160D-04-2.728484105319D-12 0.000000000000D+00
    5.600000000000D+01-1.143750000000D+02 5.860601337560D-09-3.011374154815D+00
   -5.990266799927D-06 1.561175135430D-02 8.706003427505D-06 5.153731977463D+03
    3.024000000000D+05 2.607703208923D-07-2.650865418042D-01-8.940696716309D-08
    8.927321117729D-01 1.710625000000D+02 1.378704856248D+00-8.425351083474D-09
   -1.278624706114D-10 1.000000000000D+00 1.830000000000D+03 0.000000000000D+00
    2.000000000000D+00 0.000000000000D+00-1.210719347000D-08 5.600000000000D+01
    3.024000000000D+05 0.000000000000D+00
12 15 02 05 00 00  0.0 2.668537199497D-04 2.955857780762D-12 0.000000000000D+00
    6.700000000000D+01 1.072500000000D+02 3.975522577804D-09 2.763831216275D+00
    5.386769771576D-06 5.230143782683D-03 5.278736352921D-06 5.153741575241D+03
    3.456000000000D+05-4.097819328308D-08-1.979725406412D+00-6.891787052155D-08
    9.890416455545D-01 2.908437500000D+02 5.057473841229D-01-7.887114072958D-09
    3.342996435229D-10 1.000000000000D+00 1.830000000000D+03 0.000000000000D+00
    2.000000000000D+00 0.000000000000D+00-1.257285475731D-08 6.700000000000D+01
    3.456000000000D+05 0.000000000000D+00
13 15 02 04 20 00  0.0-8.520437404513D-05-3.524291969370D-12 0.000000000000D+00
    2.300000000000D+01-3.856250000000D+01 4.594119751289D-09 1.862543703564D+00
   -2.069398760796D-06 5.348252598196D-03 6.185844540596D-06 5.153680395126D+03
    3.312000000000D+05 8.940696716309D-08 2.275262797234D+00-7.450580596924D-09
    9.748756963087D-01 2.667187500000D+02 2.064984336441D+00-7.990689887549D-09
   -4.907347306293D-10 1.000000000000D+00 1.830000000000D+03 0.000000000000D+00
    2.000000000000D+00 0.000000000000D+00-1.164153218269D-08 2.300000000000D+01
    3.312000000000D+05 0.000000000000D+00
14 15 02 05 00 00  0.0 9.038252756000D-05-3.524291969370D-12 0.000000000000D+00
    3.500000000000D+01-3.609375000000D+01 4.862702684960D-09-4.797377554374D-01
   -1.834705471992D-06 7.737284991890D-03 5.856156349182D-06 5.153774536133D+03
    3.456000000000D+05-6.891787052155D-08 2.241293365448D+00 8.754432201385D-08
    9.673415833512D-01 2.733750000000D+02-1.970892778109D+00-8.327132761110D-09
   -3.546576365920D-10 1.000000000000D+00 1.830000000000D+03 0.000000000000D+00
    2.000000000000D+00 0.000000000000D+00-9.313225746155D-09 3.500000000000D+01
    3.456000000000D+05 0.000000000000D+00
15 15 02 04 21 59 44.0-2.303901128471D-04-2.273736754432D-12 0.000000000000D+00
    1.500000000000D+01-3.506250000000D+01 5.665950375544D-09-2.178686911421D+00
   -2.058222889900D-06 7.069775136188D-03 4.813075065613D-06 5.153580018997D+03
    3.383840000000D+05 5.215406417847D-08 2.120918991646D+00-1.341104507446D-07
    9.338901489132D-01 2.728750000000D+02 3.707837452484D-01-8.611429791472D-09
   -2.203663224121D-10 1.000000000000D+00 1.830000000000D+03 0.000000000000D+00
    2.000000000000D+00 0.000000000000D+00-1.071020960808D-08 1.500000000000D+01
    3.383840000000D+05 0.000000000000D+00
16 15 02 04 06 00  0.0-1.593162305653D-04 3.296918293927D-12 0.000000000000D+00
    1.200000000000D+01 8.962500000000D+01 4.162673317154D-09-2.536775086385D+00
    4.529953002930D-06 8.015169179998D-03 4.146248102188D-06 5.153739068985D+03
    2.808000000000D+05-6.146728992462D-08-1.960556495310D+00-1.266598701477D-07
    9.895664045099D-01 3.183437500000D+02 2.340928887370D-01-7.963546266865D-09
    3.875161302958D-10 1.000000000000D+00 1.830000000000D+03 0.000000000000D+00
    2.000000000000D+00 0.000000000000D+00-1.024454832077D-08 1.200000000000D+01
    2.808000000000D+05 0.000000000000D+00
